IRIDIUM 144             
1 43249U 18030A   24182.84744782 -.00000007  00000+0 -94413-5 0  9999
2 43249  86.3973 229.7543 0002497  92.1382 268.0099 14.34217433327467
IRIDIUM 149             
1 43250U 18030B   24182.85378990  .00000014  00000+0 -21708-5 0  9990
2 43250  86.3968 229.7269 0002460  90.1501 269.9976 14.34217687327486
IRIDIUM 157             
1 43251U 18030C   24183.22165850  .00000118  00000+0  35232-4 0  9992
2 43251  86.3970 229.6104 0002062  89.3826 270.7606 14.34218471327511
IRIDIUM 140             
1 43252U 18030D   24182.89183634  .00000467  00000+0  15955-3 0  9991
2 43252  86.3973 229.7627 0002709  98.5094 261.6408 14.34216626327523
IRIDIUM 145             
1 43253U 18030E   24183.22800360  .00000043  00000+0  82987-5 0  9993
2 43253  86.3970 229.5960 0002741  88.5671 271.5839 14.34217825327503
IRIDIUM 146             
1 43254U 18030F   24182.65082672  .00000043  00000+0  81499-5 0  9995
2 43254  86.3970 229.8519 0002494  90.7840 269.3642 14.34217954327437
IRIDIUM 148             
1 43255U 18030G   24183.52610469  .00000089  00000+0  24549-4 0  9996
2 43255  86.3970 229.5183 0002257  88.6890 271.4565 14.34216485327605
IRIDIUM 142             
1 43256U 18030H   24183.42462219  .00000113  00000+0  33213-4 0  9990
2 43256  86.3968 229.4757 0002640  88.9234 271.2264 14.34218608327546
